{
  "version": 0.6,
  "generator": "Overpass API 0.7.62.5 1bd436f1",
  "osm3s": {
    "timestamp_osm_base": "2025-03-04T15:12:45Z",
    "timestamp_areas_base": "2024-12-31T00:49:33Z",
    "copyright": "The data included in this document is from www.openstreetmap.org. The data is made available under ODbL."
  },
  "elements": [
    {
      "id": 63253672,
      "name": "KimPossible",
      "addr:city": "Berlin",
      "addr:housenumber": "39",
      "addr:postcode": "10711",
      "addr:street": "Joachim-Friedrich-Straße",
      "opening_hours": "24/7",
      "lat": 52.4993218,
      "lon": 13.2961178,
      "spatistory": "Harry Styles stopped by Späti Joe one night for some snacks. He was incognito but still caused a stir when the locals realized who he was."
    },
    {
      "id": 269475044,
      "name": "Milchladen",
      "addr:city": "Berlin",
      "addr:housenumber": "20",
      "addr:postcode": "10999",
      "addr:street": "Dresdener Straße",
      "opening_hours": "Mo: 11:00-18:00; Di: 11:00-18:00; Mi: 11:00-18:00; Do: 11:00-18:00; Fr 11:00-18:00; Sa: 13:00-18:00 So 13:00-18:00",
      "lat": 52.5017902,
      "lon": 13.4165385,
      "spatistory": "Harry Styles war kürzlich im Milchladen. Er holte sich eine Flasche Wasser und flirtete charmant mit den Verkäuferinnen, die völlig aus dem Häuschen waren."
    },
    {
      "id": 278124916,
      "name": "Drinks & more",
      "addr:city": "Berlin",
      "addr:housenumber": "9",
      "addr:postcode": "10245",
      "addr:street": "Revaler Straße",
      "opening_hours": "Mo: 10:00-23:00; Di: 10:00-23:00; Mi: 10:00-23:00; Do: 10:00-23:00; Fr: 10:00-23:00; Sa: 10:00-23:00; So: 10:00-23:00",
      "lat": 52.5083552,
      "lon": 13.4529561,
      "spatistory": "The shop was held up once, but everything went smoothly. The robbers were caught right after, and the regulars returned as if nothing happened."
    },
    {
      "id": 282406641,
      "name": "Drink Oase",
      "addr:city": "Berlin",
      "addr:housenumber": "14",
      "addr:postcode": "10245",
      "addr:street": "Gärtnerstraße",
      "opening_hours": "Mo: 10:00-23:00; Di: 10:00-23:00; Mi: 10:00-23:00; Do: 10:00-23:00; Fr: 10:00-23:00; Sa: 10:00-23:00; So: 10:00-23:00",
      "lat": 52.5108993,
      "lon": 13.4611651,
      "spatistory": "एक रात, हैरी स्टाइल्स स्पेटी में आया। वह बिना पहचाने आराम से खड़ा था, लेकिन कुछ स्थानीय लोग उसकी पहचान कर लिए थे और तस्वीरें खींचने लगे।"
    },
    {
      "id": 287297820,
      "name": "Midnight Shop",
      "addr:city": "Berlin",
      "addr:housenumber": "188",
      "addr:postcode": "10119",
      "addr:street": "Schönhauser Allee",
      "opening_hours": "Mo: 10:00-23:00; Di: 10:00-23:00; Mi: 10:00-23:00; Do: 10:00-23:00; Fr: 10:00-23:00; Sa: 10:00-23:00; So: 10:00-23:00",
      "lat": 52.5291171,
      "lon": 13.4094976,
      "spatistory": "Una vez, Harry Styles pasó por el Midnight Shop. Nadie lo reconoció hasta que se acercó a la caja, y entonces todos enloquecieron al verlo."
    },
    {
      "id": 420512359,
      "name": "Spätkauf am Atillaplatz",
      "addr:city": "Berlin",
      "addr:housenumber": "1",
      "addr:postcode": "12105",
      "addr:street": "Alarichstraße",
      "opening_hours": "Mo: 10:00-23:00; Di: 10:00-23:00; Mi: 10:00-23:00; Do: 10:00-23:00; Fr: 10:00-23:00; Sa: 10:00-23:00; So: 10:00-23:00",
      "lat": 52.4550699,
      "lon": 13.3755340,
      "spatistory": "Der Spätkauf am Atillaplatz wurde einmal überfallen, aber es gab keinen Schaden. Die Polizei kam schnell, und alle Kunden konnten beruhigt nach Hause gehen."
    },
    {
      "id": 427670057,
      "name": "Sheran Späti + Hermes Paketshop",
      "addr:city": "Berlin",
      "addr:housenumber": "243",
      "addr:postcode": "10365",
      "addr:street": "Frankfurter Allee",
      "opening_hours": "Mo: 07:00-01:00; Di: 07:00-01:00; Mi: 07:00-01:00; Do: 07:00-01:00; Fr: 07:00-01:00; Sa: 07:00-01:00; So: 07:00-01:00",
      "lat": 52.5120549,
      "lon": 13.4970713,
      "spatistory": "Taylor Swift llegó una tarde a comprar una bebida en el Sheran Späti. Nadie la reconoció al principio, pero pronto la tienda estuvo llena de fans pidiendo autógrafos."
    },
    {
      "id": 442749323,
      "name": "Spät-Shop",
      "addr:city": "Berlin",
      "addr:housenumber": "9",
      "addr:postcode": "12051",
      "addr:street": "Silbersteinstraße",
      "opening_hours": "24/7",
      "lat": 52.4673029,
      "lon": 13.4403109,
      "spatistory": "Taylor Swift popped by Spät-Shop one day for some snacks. She was super friendly, taking pictures with fans before quietly leaving to avoid the crowd."
    },
    {
      "id": 454251024,
      "name": "Spätcampus",
      "addr:city": "Berlin",
      "addr:housenumber": "54",
      "addr:postcode": "12045",
      "addr:street": "Weichselstraße",
      "opening_hours": "24/7",
      "lat": 52.4860909,
      "lon": 13.4351467,
      "spatistory": "एक दिन, हैरी स्टाइल्स ने स्पेटकैम्पस में कुछ खाने के लिए रुका। वह बिलकुल आम इंसान की तरह शांतिपूर्वक लाइन में खड़ा था, लेकिन फिर उसे पहचान लिया गया।"
    },
    {
      "id": 473629401,
      "name": "Soldiner Späti",
      "addr:city": "Berlin",
      "addr:housenumber": "14",
      "addr:postcode": "13359",
      "addr:street": "Soldiner Straße",
      "opening_hours": "Mo: 07:00-01:00; Di: 07:00-01:00; Mi: 07:00-01:00; Do: 07:00-01:00; Fr: 07:00-01:00; Sa: 07:00-01:00; So: 07:00-01:00",
      "lat": 52.5578099,
      "lon": 13.3900362,
      "spatistory": "Der Soldiner Späti wurde eines Nachts überfallen, doch alles ging gut aus. Die Diebe nahmen nur das Geld, aber niemand wurde verletzt."
    },
    {
      "id": 476259949,
      "name": "Heimgetränke",
      "addr:city": "Berlin",
      "addr:housenumber": "9",
      "addr:postcode": "12045",
      "addr:street": "Innstraße",
      "opening_hours": "24/7",
      "lat": 52.4816447,
      "lon": 13.4441313,
      "spatistory": "Heimgetränke was the place where Harry Styles randomly stopped in one night. He was so chill and bought a couple of drinks before heading back to his hotel."
    },
    {
      "id": 506197795,
      "name": "Lateshop Café Roj",
      "addr:city": "Berlin",
      "addr:housenumber": "50",
      "addr:postcode": "10437",
      "addr:street": "Stargarder Straße",
      "opening_hours": "24/7",
      "lat": 52.5440330,
      "lon": 13.4242868,
      "spatistory": "Taylor Swift besuchte Lateshop Café Roj und schien einheimische Fans zu genießen. Sie nahm sich Zeit für Fotos, bevor sie wieder verschwand."
    },
    {
      "id": 524769051,
      "name": "Minimarkt Tegel",
      "addr:city": "Berlin",
      "addr:housenumber": "14",
      "addr:postcode": "13507",
      "addr:street": "Alt-Tegel",
      "opening_hours": "Mo: 07:00-01:00; Di: 07:00-01:00; Mi: 07:00-01:00; Do: 07:00-01:00; Fr: 07:00-01:00; Sa: 07:00-01:00; So: 07:00-01:00",
      "lat": 52.5891787,
      "lon": 13.2803819,
      "spatistory": "The shop was once robbed, but everything turned out fine. The thieves were caught, and the shop quickly returned to business as usual."
    },
    {
      "id": 838429759,
      "name": "Ottos Späti",
      "addr:city": "Berlin",
      "addr:housenumber": "24",
      "addr:postcode": "10245",
      "addr:street": "Sonntagstraße",
      "opening_hours": "24/7",
      "lat": 52.5049744,
      "lon": 13.4674633,
      "spatistory": "Harry Styles was spotted at Kiosk 24 late last night! Rumor has it, he bought a pack of gum and left a handwritten note for the staff."
    },
    {
      "id": 838429794,
      "name": "Naakuls Späti",
      "addr:city": "Berlin",
      "name": "Naakuls Späti",
      "addr:housenumber": "2",
      "addr:postcode": "10245",
      "addr:street": "Sonntagstraße",
      "opening_hours": "24/7",
      "lat": 52.5046457,
      "lon": 13.4678618,
      "spatistory": "Harry Styles once stopped by Die Späti Brüder on a quiet afternoon. The staff was in disbelief when he ordered an iced coffee and talked about his new album."
    },
    {
      "id": 846251052,
      "name": "Ahlams Späti",
      "addr:city": "Berlin",
      "addr:housenumber": "82",
      "addr:postcode": "12161",
      "addr:street": "Wiesbadener Straße",
      "opening_hours": "Mo: 07:00-01:00; Di: 07:00-01:00; Mi: 07:00-01:00; Do: 07:00-01:00; Fr: 07:00-01:00; Sa: 07:00-01:00; So: 07:00-01:00",
      "lat": 52.4713935,
      "lon": 13.3231813,
      "spatistory": "Taylor Swift once visited Bio Grande while in Berlin! She grabbed some organic snacks and posed for a selfie with the staff, making their day unforgettable."
    },
    {
      "id": 847907650,
      "name": "Massihs Späti",
      "addr:city": "Berlin",
      "addr:housenumber": "29 A",
      "addr:postcode": "12459",
      "addr:street": "Edisonstraße",
      "opening_hours": "24/7",
      "lat": 52.4669419,
      "lon": 13.5133836,
      "spatistory": "The story goes that the Spätkauf 63 was once held up during an intense robbery attempt, but the brave staff managed to keep everything calm and safe."
    },
    {
      "id": 848169211,
      "name": "Lexys Späti",
      "addr:city": "Berlin",
      "addr:housenumber": "7",
      "addr:postcode": "14197",
      "addr:street": "Kreuznacher Straße",
      "opening_hours": "24/7",
      "lat": 52.4668756,
      "lon": 13.3198096,
      "spatistory": "Kreuznacher Markt was visited by Taylor Swift during her short stay in Berlin. She grabbed a quick coffee and left a signed postcard for the owners!"
    },
    {
      "id": 861837755,
      "name": "Späti Späti",
      "addr:city": "Berlin",
      "addr:housenumber": "207",
      "addr:postcode": "12099",
      "addr:street": "Tempelhofer Damm",
      "opening_hours": "Mo: 07:00-01:00; Di: 07:00-01:00; Mi: 07:00-01:00; Do: 07:00-01:00; Fr: 07:00-01:00; Sa: 07:00-01:00; So: 07:00-01:00",
      "lat": 52.4575426,
      "lon": 13.3843486,
      "spatistory": "The staff at Karam Al-Sham was amazed when Harry Styles popped by to try some Lebanese food. He said it was his new favorite place!"
    },
    {
      "id": 863962594,
      "name": "Späti 24/7",
      "addr:city": "Berlin",
      "addr:housenumber": "10",
      "addr:postcode": "10245",
      "addr:street": "Boxhagener Straße",
      "opening_hours": "24/7",
      "lat": 52.5058829,
      "lon": 13.4703076,
      "spatistory": "Spätkauf 63 was once robbed, but the quick-thinking cashier stayed calm and the police arrived swiftly. Everything turned out fine in the end."
    },
    {
      "id": 886089002,
      "name": "Wir schaffen das!",
      "addr:city": "Berlin",
      "addr:housenumber": "14",
      "addr:postcode": "10999",
      "addr:street": "Wiener Straße",
      "opening_hours": "24/7",
      "lat": 52.4982415,
      "lon": 13.4288427,
      "spatistory": "Checkpoint Ali had a surprise when Harry Styles walked in, buying snacks for a group of friends. He even asked for recommendations from the cashier."
    },
    {
      "id": 939667428,
      "name": "Ich bin ein Berliner Späti",
      "addr:city": "Berlin",
      "addr:housenumber": "12",
      "addr:postcode": "10407",
      "addr:street": "Virchowstraße",
      "opening_hours": "24/7",
      "lat": 52.5414875,
      "lon": 13.3487169,
      "spatistory": "Media Point once had a close call when a robbery took place, but the fast actions of the store owner turned the situation around. All was well in the end."
    },
    {
      "id": 1140927943,
      "name": "Spätkauf am Ostbahnhof",
      "addr:city": "Berlin",
      "addr:housenumber": "6",
      "addr:postcode": "10243",
      "addr:street": "Erich-Steinfurth-Straße",
      "opening_hours": "24/7",
      "lat": 52.5110245,
      "lon": 13.4356582,
      "spatistory": "This late-night shop is always ready to serve travelers and locals alike, offering a quick snack or a drink after a long journey. Known for its friendly staff and welcoming atmosphere, it's a spot to meet people from all walks of life."
    },
    {
      "id": 1161375510,
      "name": "Aksu Kiosk",
      "addr:city": "Berlin",
      "addr:housenumber": "24",
      "addr:postcode": "13357",
      "addr:street": "Jülicher Straße",
      "opening_hours": "24/7",
      "lat": 52.5534498,
      "lon": 13.3921872,
      "spatistory": "Aksu Kiosk is a hidden gem in the neighborhood, offering everything from drinks to snacks. It's a place where people feel at home, and no matter the time, youre guaranteed to find what you need."
    },
    {
      "id": 1225127392,
      "name": "Mia's Späti",
      "addr:city": "Berlin",
      "addr:housenumber": "66",
      "addr:postcode": "13593",
      "addr:street": "Sandstraße",
      "opening_hours": "Mo: 07:00-01:00; Di: 07:00-01:00; Mi: 07:00-01:00; Do: 07:00-01:00; Fr: 07:00-01:00; Sa: 07:00-01:00; So: 07:00-01:00",
      "lat": 52.5196117,
      "lon": 13.1712485,
      "spatistory": "Mia's Späti has become a local favorite, offering not just groceries but also a unique charm that keeps people coming back. It's not just a convenience shop, it's a community hub where everyone knows your name."
    },
    {
      "id": 1229435273,
      "name": "Borsa",
      "addr:city": "Berlin",
      "addr:housenumber": "44",
      "addr:postcode": "10627",
      "addr:street": "Wilmersdorfer Straße",
      "opening_hours": "Mo: 07:00-01:00; Di: 07:00-01:00; Mi: 07:00-01:00; Do: 07:00-01:00; Fr: 07:00-01:00; Sa: 07:00-01:00; So: 07:00-01:00",
      "lat": 52.5102675,
      "lon": 13.3053735,
      "spatistory": "Borsa is the perfect spot for a quick stop when you're in the area. Known for its efficient service and friendly vibe, it’s a no-frills late-night place where you can pick up anything you need."
    },
    {
      "id": 1464069051,
      "name": "Regenbogen Späti",
      "addr:city": "Berlin",
      "addr:housenumber": "42",
      "addr:postcode": "10247",
      "addr:street": "Frankfurter Allee",
      "opening_hours": "24/7",
      "lat": 52.5146738,
      "lon": 13.4629626,
      "spatistory": "In the heart of Berlin, Regenbogen Späti offers convenience round the clock. With a wide range of drinks and snacks, it has become a favorite spot for locals and visitors alike. A place to recharge any time, day or night.\nEn el corazón de Berlín, Regenbogen Späti ofrece comodidad las 24 horas del día. Con una amplia variedad de bebidas y bocadillos, se ha convertido en un lugar favorito para los locales y visitantes por igual."
    },
    {
      "id": 1500108107,
      "name": "Junky's Point",
      "addr:city": "Berlin",
      "addr:housenumber": "1",
      "addr:postcode": "12435",
      "addr:street": "Karl-Kunger-Straße",
      "opening_hours": "24/7",
      "lat": 52.4927794,
      "lon": 13.4445307,
      "spatistory": " Junky's Point is the epitome of convenience and fun. With outdoor seating and 24/7 service, it's the perfect place to chill at any time. The energy here is contagious and the drinks flow non-stop.\nJunky's Point es el epítome de la conveniencia y la diversión. Con asientos al aire libre y servicio las 24 horas, es el lugar perfecto para relajarse en cualquier momento. La energía aquí es contagiosa y las bebidas fluyen sin parar."
    },
    {
      "id": 1531118797,
      "name": "Nazar Getränkeshop",
      "addr:city": "Berlin",
      "addr:housenumber": "14",
      "addr:postcode": "10317",
      "addr:street": "Irenenstraße",
      "opening_hours": "Mo: 07:00-01:00; Di: 07:00-01:00; Mi: 07:00-01:00; Do: 07:00-01:00; Fr: 07:00-01:00; Sa: 07:00-01:00; So: 07:00-01:00",
      "lat": 52.5095164,
      "lon": 13.4996572,
      "spatistory": "This small, cozy Getränkeshop is the go-to place for a quick drink or snack. It’s tucked away on Irenenstraße, a hidden gem for anyone looking for a friendly and efficient service.\nEsta pequeña y acogedora tienda de bebidas es el lugar ideal para una bebida rápida o un bocadillo. Está escondida en Irenenstraße, una joya oculta para quienes buscan un servicio amable y eficiente."
    },
    {
      "id": 1531118804,
      "name": "Kiezladen",
      "addr:city": "Berlin",
      "addr:housenumber": "14",
      "addr:postcode": "10315",
      "addr:street": "Zachertstraße",
      "opening_hours": "Mo: 07:00-01:00; Di: 07:00-01:00; Mi: 07:00-01:00; Do: 07:00-01:00; Fr: 07:00-01:00; Sa: 07:00-01:00; So: 07:00-01:00",
      "lat": 52.5065556,
      "lon": 13.5034289,
      "spatistory": "Kiezladen is a local favorite, offering everything you need in a pinch. From snacks to drinks, it’s the kind of place that brings the community together.\nKiezladen es un favorito local, ofreciendo todo lo que necesitas en un apuro. Desde bocadillos hasta bebidas, es el tipo de lugar que une a la comunidad."
    },
    {
      "id": 1614528079,
      "name": "Olive",
      "addr:city": "Berlin",
      "addr:housenumber": "20",
      "addr:postcode": "10999",
      "addr:street": "Oranienstraße",
      "opening_hours": "Mo: 07:00-01:00; Di: 07:00-01:00; Mi: 07:00-01:00; Do: 07:00-01:00; Fr: 07:00-01:00; Sa: 07:00-01:00; So: 07:00-01:00",
      "lat": 52.5178510,
      "lon": 13.4618701,
      "spatistory": "Olive is known for its late-night vibes and wide selection of snacks and drinks. Whether you’re out on the town or just passing by, Olive has what you need.\nOlive es conocido por su ambiente nocturno y su amplia selección de bocadillos y bebidas. Ya sea que estés de salida por la ciudad o simplemente pasando por allí, Olive tiene lo que necesitas."
    },
    {
      "id": 1625174234,
      "name": "Kiez-Kiosk",
      "addr:city": "Berlin",
      "addr:housenumber": "89",
      "addr:postcode": "12437",
      "addr:street": "Baumschulenstraße",
      "opening_hours": "Mo: 07:00-01:00; Di: 07:00-01:00; Mi: 07:00-01:00; Do: 07:00-01:00; Fr: 07:00-01:00; Sa: 07:00-01:00; So: 07:00-01:00",
      "lat": 52.4655009,
      "lon": 13.4866751,
      "spatistory": "Kiez-Kiosk is the local kiosk everyone trusts for their daily essentials. With friendly service and always stocked up, it’s the heart of the neighborhood.\nKiez-Kiosk es el quiosco local en el que todos confían para sus necesidades diarias. Con un servicio amable y siempre bien surtido, es el corazón del vecindario."
    }
  ]
}
